start=new Date('2022-02-09T00:00:00.000Z').valueOf();
sats=[{"OBJECT_ID":"2021-082AB","PERIAPSIS":"356.800","COUNTRY_CODE":"US","MEAN_MOTION":"15.69734329","GP_ID":"195549500","PERIOD":"91.735","BSTAR":"0.00037704000000","MEAN_MOTION_DDOT":"0.0000000000000","REV_AT_EPOCH":"369","RCS_SIZE":"LARGE","APOAPSIS":"362.518","SEMIMAJOR_AXIS":"6737.794","MEAN_MOTION_DOT":"0.00045019","CLASSIFICATION_TYPE":"U","TLE_LINE2":"2 49155  69.9999  72.3437 0004243 302.7805  96.0700 15.69734329  3690","ECCENTRICITY":"0.00042430","OBJECT_TYPE":"PAYLOAD","CENTER_NAME":"EARTH","ELEMENT_SET_NO":"999","SITE":"AFWTR","EPOCH":"2022-02-08T14:00:01.000224","TLE_LINE1":"1 49155U 21082AB  22039.58334491  .00045019  00000-0  37704-3 0  9993","LAUNCH_DATE":"2021-09-14","NORAD_CAT_ID":"49155","EPHEMERIS_TYPE":"0","ARG_OF_PERICENTER":"302.7805","FILE":"3295096","INCLINATION":"69.9999","MEAN_ANOMALY":"96.0700","RA_OF_ASC_NODE":"72.3437","REF_FRAME":"TEME","TIME_SYSTEM":"UTC","DECAY_DATE":null,"MEAN_ELEMENT_THEORY":"SGP4","OBJECT_NAME":"STARLINK-3060"},{"PERIAPSIS":"356.960","OBJECT_ID":"2021-082AC","COUNTRY_CODE":"US","MEAN_MOTION":"15.69714941","GP_ID":"195577395","PERIOD":"91.736","MEAN_MOTION_DDOT":"0.0000000000000","REV_AT_EPOCH":"2437","BSTAR":"0.00079285000000","SEMIMAJOR_AXIS":"6737.850","MEAN_MOTION_DOT":"0.00095395","CLASSIFICATION_TYPE":"U","APOAPSIS":"362.470","RCS_SIZE":"LARGE","TLE_LINE2":"2 49156  70.0002  71.3959 0004089 294.6445 198.0169 15.69714941 24372","OBJECT_TYPE":"PAYLOAD","ECCENTRICITY":"0.00040890","CENTER_NAME":"EARTH","ELEMENT_SET_NO":"999","TLE_LINE1":"1 49156U 21082AC  22039.91668981  .00095395  00000-0  79285-3 0  9997","LAUNCH_DATE":"2021-09-14","NORAD_CAT_ID":"49156","EPHEMERIS_TYPE":"0","SITE":"AFWTR","EPOCH":"2022-02-08T22:00:01.999584","INCLINATION":"70.0002","MEAN_ANOMALY":"198.0169","ARG_OF_PERICENTER":"294.6445","FILE":"3295272","TIME_SYSTEM":"UTC","RA_OF_ASC_NODE":"71.3959","REF_FRAME":"TEME","OBJECT_NAME":"STARLINK-3085","MEAN_ELEMENT_THEORY":"SGP4","DECAY_DATE":null},{"PERIOD":"93.317","MEAN_MOTION_DDOT":"0.0000000000000","REV_AT_EPOCH":"368","BSTAR":"-0.01593800000000","MEAN_MOTION":"15.43127636","COUNTRY_CODE":"US","GP_ID":"195549999","PERIAPSIS":"434.617","OBJECT_ID":"2021-082AD","TIME_SYSTEM":"UTC","REF_FRAME":"TEME","RA_OF_ASC_NODE":"73.3903","OBJECT_NAME":"STARLINK-3051","MEAN_ELEMENT_THEORY":"SGP4","DECAY_DATE":null,"EPHEMERIS_TYPE":"0","NORAD_CAT_ID":"49157","TLE_LINE1":"1 49157U 21082AD  22039.58334491 -.00651381  00000-0 -15938-1 0  9995","LAUNCH_DATE":"2021-09-14","EPOCH":"2022-02-08T14:00:01.000224","SITE":"AFWTR","MEAN_ANOMALY":"296.5662","INCLINATION":"69.9998","FILE":"3295096","ARG_OF_PERICENTER":"279.5809","OBJECT_TYPE":"PAYLOAD","ECCENTRICITY":"0.00033310","ELEMENT_SET_NO":"999","CENTER_NAME":"EARTH","CLASSIFICATION_TYPE":"U","MEAN_MOTION_DOT":"-0.00651381","SEMIMAJOR_AXIS":"6815.022","APOAPSIS":"439.157","RCS_SIZE":"LARGE","TLE_LINE2":"2 49157  69.9998  73.3903 0003331 279.5809 296.5662 15.43127636  3684"},{"SEMIMAJOR_AXIS":"6814.831","CLASSIFICATION_TYPE":"U","MEAN_MOTION_DOT":"-0.00651642","APOAPSIS":"438.973","RCS_SIZE":"LARGE","TLE_LINE2":"2 49158  69.9998  73.3857 0003340 279.6261 309.4299 15.43192413  3681","ECCENTRICITY":"0.00033400","OBJECT_TYPE":"PAYLOAD","CENTER_NAME":"EARTH","ELEMENT_SET_NO":"999","TLE_LINE1":"1 49158U 21082AE  22039.58334491 -.00651642  00000-0 -15910-1 0  9996","LAUNCH_DATE":"2021-09-14","EPHEMERIS_TYPE":"0","NORAD_CAT_ID":"49158","EPOCH":"2022-02-08T14:00:01.000224","SITE":"AFWTR","INCLINATION":"69.9998","MEAN_ANOMALY":"309.4299","ARG_OF_PERICENTER":"279.6261","FILE":"3295096","TIME_SYSTEM":"UTC","RA_OF_ASC_NODE":"73.3857","REF_FRAME":"TEME","MEAN_ELEMENT_THEORY":"SGP4","OBJECT_NAME":"STARLINK-3083","DECAY_DATE":null,"PERIAPSIS":"434.420","OBJECT_ID":"2021-082AE","COUNTRY_CODE":"US","MEAN_MOTION":"15.43192413","GP_ID":"195550237","PERIOD":"93.313","MEAN_MOTION_DDOT":"0.0000000000000","REV_AT_EPOCH":"368","BSTAR":"-0.01591000000000"},{"CENTER_NAME":"EARTH","ELEMENT_SET_NO":"999","ECCENTRICITY":"0.00040030","OBJECT_TYPE":"PAYLOAD","TLE_LINE2":"2 49159  69.9980  90.7038 0004003 285.9567 310.6203 14.98306252 23917","SEMIMAJOR_AXIS":"6950.266","MEAN_MOTION_DOT":"0.00032604","CLASSIFICATION_TYPE":"U","APOAPSIS":"574.914","RCS_SIZE":"LARGE","OBJECT_NAME":"STARLINK-3056","MEAN_ELEMENT_THEORY":"SGP4","DECAY_DATE":null,"TIME_SYSTEM":"UTC","RA_OF_ASC_NODE":"90.7038","REF_FRAME":"TEME","INCLINATION":"69.9980","MEAN_ANOMALY":"310.6203","ARG_OF_PERICENTER":"285.9567","FILE":"3295260","LAUNCH_DATE":"2021-09-14","TLE_LINE1":"1 49159U 21082AF  22039.91668981  .00032604  00000-0  27291-2 0  9993","NORAD_CAT_ID":"49159","EPHEMERIS_TYPE":"0","EPOCH":"2022-02-08T22:00:01.999584","SITE":"AFWTR","PERIAPSIS":"569.349","OBJECT_ID":"2021-082AF","REV_AT_EPOCH":"2391","MEAN_MOTION_DDOT":"0.0000000000000","BSTAR":"0.00272910000000","PERIOD":"96.109","GP_ID":"195578098","COUNTRY_CODE":"US","MEAN_MOTION":"14.98306252"},{"OBJECT_TYPE":"PAYLOAD","ECCENTRICITY":"0.00034480","ELEMENT_SET_NO":"999","CENTER_NAME":"EARTH","CLASSIFICATION_TYPE":"U","MEAN_MOTION_DOT":"0.00032224","SEMIMAJOR_AXIS":"6950.282","APOAPSIS":"574.543","RCS_SIZE":"LARGE","TLE_LINE2":"2 49160  69.9988  90.7057 0003448 289.0771 358.9166 14.98301297 23908","TIME_SYSTEM":"UTC","REF_FRAME":"TEME","RA_OF_ASC_NODE":"90.7057","MEAN_ELEMENT_THEORY":"SGP4","OBJECT_NAME":"STARLINK-3095","DECAY_DATE":null,"EPHEMERIS_TYPE":"0","NORAD_CAT_ID":"49160","TLE_LINE1":"1 49160U 21082AG  22039.91668981  .00032224  00000-0  26980-2 0  9997","LAUNCH_DATE":"2021-09-14","SITE":"AFWTR","EPOCH":"2022-02-08T22:00:01.999584","MEAN_ANOMALY":"358.9166","INCLINATION":"69.9988","FILE":"3295261","ARG_OF_PERICENTER":"289.0771","PERIAPSIS":"569.750","OBJECT_ID":"2021-082AG","PERIOD":"96.109","REV_AT_EPOCH":"2390","MEAN_MOTION_DDOT":"0.0000000000000","BSTAR":"0.00269800000000","MEAN_MOTION":"14.98301297","COUNTRY_CODE":"US","GP_ID":"195578115"},{"CENTER_NAME":"EARTH","ELEMENT_SET_NO":"999","ECCENTRICITY":"0.00039020","OBJECT_TYPE":"PAYLOAD","TLE_LINE2":"2 49161  69.9986  90.7060 0003902 276.7496 345.6012 14.98335071 23903","RCS_SIZE":"LARGE","APOAPSIS":"574.754","SEMIMAJOR_AXIS":"6950.177","CLASSIFICATION_TYPE":"U","MEAN_MOTION_DOT":"-0.00014394","DECAY_DATE":null,"MEAN_ELEMENT_THEORY":"SGP4","OBJECT_NAME":"STARLINK-3080","RA_OF_ASC_NODE":"90.7060","REF_FRAME":"TEME","TIME_SYSTEM":"UTC","ARG_OF_PERICENTER":"276.7496","FILE":"3295269","INCLINATION":"69.9986","MEAN_ANOMALY":"345.6012","SITE":"AFWTR","EPOCH":"2022-02-08T22:00:01.999584","TLE_LINE1":"1 49161U 21082AH  22039.91668981 -.00014394  00000-0 -12008-2 0  9994","LAUNCH_DATE":"2021-09-14","NORAD_CAT_ID":"49161","EPHEMERIS_TYPE":"0","OBJECT_ID":"2021-082AH","PERIAPSIS":"569.330","BSTAR":"-0.00120080000000","REV_AT_EPOCH":"2390","MEAN_MOTION_DDOT":"0.0000000000000","PERIOD":"96.107","GP_ID":"195578305","COUNTRY_CODE":"US","MEAN_MOTION":"14.98335071"},{"COUNTRY_CODE":"US","MEAN_MOTION":"14.98301105","GP_ID":"195578127","PERIOD":"96.109","REV_AT_EPOCH":"2399","MEAN_MOTION_DDOT":"0.0000000000000","BSTAR":"0.00268500000000","PERIAPSIS":"569.496","OBJECT_ID":"2021-082AJ","LAUNCH_DATE":"2021-09-14","TLE_LINE1":"1 49162U 21082AJ  22039.91668981  .00032069  00000-0  26850-2 0  9992","NORAD_CAT_ID":"49162","EPHEMERIS_TYPE":"0","EPOCH":"2022-02-08T22:00:01.999584","SITE":"AFWTR","INCLINATION":"69.9992","MEAN_ANOMALY":"31.3662","ARG_OF_PERICENTER":"282.3099","FILE":"3295269","TIME_SYSTEM":"UTC","RA_OF_ASC_NODE":"90.7080","REF_FRAME":"TEME","OBJECT_NAME":"STARLINK-3082","MEAN_ELEMENT_THEORY":"SGP4","DECAY_DATE":null,"SEMIMAJOR_AXIS":"6950.282","CLASSIFICATION_TYPE":"U","MEAN_MOTION_DOT":"0.00032069","RCS_SIZE":"LARGE","APOAPSIS":"574.799","TLE_LINE2":"2 49162  69.9992  90.7080 0003815 282.3099  31.3662 14.98301105 23998","OBJECT_TYPE":"PAYLOAD","ECCENTRICITY":"0.00038150","CENTER_NAME":"EARTH","ELEMENT_SET_NO":"999"},{"INCLINATION":"69.9998","MEAN_ANOMALY":"328.1293","ARG_OF_PERICENTER":"278.9125","FILE":"3295096","LAUNCH_DATE":"2021-09-14","TLE_LINE1":"1 49163U 21082AK  22039.58334491 -.00652011  00000-0 -15811-1 0  9993","EPHEMERIS_TYPE":"0","NORAD_CAT_ID":"49163","SITE":"AFWTR","EPOCH":"2022-02-08T14:00:01.000224","MEAN_ELEMENT_THEORY":"SGP4","OBJECT_NAME":"STARLINK-3088","DECAY_DATE":null,"TIME_SYSTEM":"UTC","RA_OF_ASC_NODE":"73.3756","REF_FRAME":"TEME","TLE_LINE2":"2 49163  69.9998  73.3756 0003331 278.9125 328.1293 15.43395146  3686","SEMIMAJOR_AXIS":"6814.235","CLASSIFICATION_TYPE":"U","MEAN_MOTION_DOT":"-0.00652011","RCS_SIZE":"LARGE","APOAPSIS":"438.370","CENTER_NAME":"EARTH","ELEMENT_SET_NO":"999","OBJECT_TYPE":"PAYLOAD","ECCENTRICITY":"0.00033310","GP_ID":"195549501","COUNTRY_CODE":"US","MEAN_MOTION":"15.43395146","REV_AT_EPOCH":"368","MEAN_MOTION_DDOT":"0.0000000000000","BSTAR":"-0.01581100000000","PERIOD":"93.301","PERIAPSIS":"433.830","OBJECT_ID":"2021-082AK"},{"OBJECT_ID":"2021-082AL","PERIAPSIS":"433.291","PERIOD":"93.290","BSTAR":"-0.01572100000000","MEAN_MOTION_DDOT":"0.0000000000000","REV_AT_EPOCH":"368","MEAN_MOTION":"15.43577046","COUNTRY_CODE":"US","GP_ID":"195549247","OBJECT_TYPE":"PAYLOAD","ECCENTRICITY":"0.00033360","ELEMENT_SET_NO":"999","CENTER_NAME":"EARTH","APOAPSIS":"437.837","RCS_SIZE":"LARGE","CLASSIFICATION_TYPE":"U","MEAN_MOTION_DOT":"-0.00652284","SEMIMAJOR_AXIS":"6813.699","TLE_LINE2":"2 49164  69.9999  73.3697 0003336 276.4077 353.4970 15.43577046  3680","REF_FRAME":"TEME","RA_OF_ASC_NODE":"73.3697","TIME_SYSTEM":"UTC","DECAY_DATE":null,"MEAN_ELEMENT_THEORY":"SGP4","OBJECT_NAME":"STARLINK-3106","EPOCH":"2022-02-08T14:00:01.000224","SITE":"AFWTR","EPHEMERIS_TYPE":"0","NORAD_CAT_ID":"49164","TLE_LINE1":"1 49164U 21082AL  22039.58334491 -.00652284  00000-0 -15721-1 0  9996","LAUNCH_DATE":"2021-09-14","FILE":"3295096","ARG_OF_PERICENTER":"276.4077","MEAN_ANOMALY":"353.4970","INCLINATION":"69.9999"}];
